street,number,zip,city,latitude,longitude
Klein Kienitzer Straße,2,15834,Rangsdorf,52.298375,13.45852
Karl-Liebknecht-Straße,19,15827,Blankenfelde-Mahlow,52.3343542,13.4052775
Jühnsdorfer Weg,1A,15827,Blankenfelde-Mahlow,52.3283788,13.4082852
Beethovenstraße,1,15831,Blankenfelde-Mahlow,52.3586453,13.4075593
Markt,9,52511,Geilenkirchen,50.96446,6.12099
Bahnhofstraße,1,51674,Wiehl,50.9488904,7.5485704
Bahnhofstraße,1,51674,Wiehl,50.9488904,7.5485704
Brummerackerweg,6,25499,Tangstedt,53.676614,9.84813
Pulvermühle,3,57319,Bad Berleburg,51.0482826,8.2714587
Rathausstraße ,16,22941,Bargteheide,53.729588,10.265397
Postplatz,1,8523,Plauen,50.496269,12.135867
Neue Poststraße,6,85598,Vaterstetten,48.0979416,11.7884509
Ruppertstr.,36,66271,Kleinblittersdorf,49.14108,7.05561
Wintringer Straße,70,66271,Kleinblittersdorf,49.1621232,7.0392627
Wintringer Straße,86,66271,Kleinblittersdorf,49.163341,7.043173
Wolfgang-Brumme-Allee,27,71034,Böblingen,48.6876867,9.0066132
Rankbachstr,40,71272,Renningen,48.76929,8.9297499
Zu den Fischteichen,6A,22941,Bargteheide,53.72207,10.25616
Birkenweg,23,23826,Bark,53.911173,10.166863
Markt,20,7318,Saalfeld/Saale,50.6483693,11.3607338
Johannes-Scheele-Straße,12,57413,Finnentrop,51.164795,7.978979
Magdalenenstraße,8,64289,Darmstadt,49.8766336,8.6577282
Vorwerker Straße ,141,23554,Lübeck,53.9008972,10.6743656
Luisenstraße,18,64283,Darmstadt,49.8721421,8.6516634
Ratekauer Weg,1,23554,Lübeck,53.8987399,10.6729519
Vorwerker Straße,141,23554,Lübeck,53.9008972,10.6743656
Do,6,25917,Sprakebüll,54.67353147,8.890783984
Friedrichsthaler Straße,4,66540,Neunkirchen,49.33046,7.13598
Am Butterberg,10,25336,Elmshorn,53.7288051,9.6558059
Hof Louisenlund,,24357,Güby,54.48637,9.6753348
Senator-Braun-Allee,33,31135,Hildesheim,52.1511734,9.9791757
Im Gewerbegebiet,14,26419,Schortens,53.5378857,7.9602991
L297,8,25712,Quickborn,54.0127576,9.2176655
Friedrichsthaler Straße,4,66540,Neunkirchen,49.33044,7.13624
Diekseepromenade,4,23714,Malente,54.165661,10.5473717
Zum Feldkamp,9,27619,Schiffdorf,53.526992,8.647472
Am Sportplatz ,2,87616,Wald,47.722355,10.560783
Gärtnerstraße,133135137,25469,Halstenbek,53.630772,9.862323
Am Sportplatz,2,87616,Wald,47.722355,10.560783
Kesselschmiedstr,2,85354,Freising,48.394633,11.739656
Münchner Str,32,85354,Freising,48.387032,11.735298
Marienplatz ,1,85354,Freising,48.400755,11.743657
Kirchstraße ,3,85375,Mintraching ,48.319456,11.687337
Westdorf,130,26579,Baltrum,53.729298,7.372247
K1696,,71665,Vaihingen an der Enz,48.9408639,8.9644039
Theodor-Heuss-Straße,30,71665,Vaihingen an der Enz,48.9525904,8.9773126
Ensinger Straße,10,71665,Vaihingen an der Enz,48.95243,8.96699
Schulstraße,42,24819,Haale,54.16898,9.5596
Herschelstraße,40C,70565,Stuttgart,48.7168028,9.1235248
Schürmannstraße,17,45136,Essen,51.433537,7.033155
Bergstraße,4,84079,Bruckberg,48.520963,11.996219
Bahnhofstraße,15B,84079,Bruckberg,48.518915,11.995165
Ingolstädter Straße ,1,85077,Manching,48.716789,11.494152
Hauptstraße,9,25497,Prisdorf,53.67278623,9.773522458
Süderstraße,71,24955,Harrislee,54.7998571,9.3993541
Eckenerstraße,24,24939,Flensburg,54.7944744,9.4217666
Jahnstraße,9,25358,Horst (Holstein),53.813165,9.618961
Schlossstraße,18,68549,Ilvesheim,49.4713914,8.5672003
Schlosspark,6,74357,Bönnigheim,49.039461,9.09331
Händelstraße,23,6114,Halle (Saale),51.4948567,11.9616573
Berliner Straße,49,69120,Heidelberg,49.4185722,8.6755527
Ziegeleiweg,35,27299,Langwedel,52.97474,9.10802
Seestraße,34,23683,Scharbeutz,54.026063,10.751503
Schulstraße ,7,23683,Scharbeutz,54.020526,10.752722
Ahrenloher Straße,65A,25436,Tornesch,53.700862,9.722702
Schulstr.,65,25368,Kiebitzreihe,53.7777293,9.6018724
P.-H.-Eggers-Straße,22,24768,Rendsburg,54.303259,9.704602
Ingolstädter Straße,1,85077,Manching,48.716789,11.494152
Elmshorner Str. ,4,25358,Horst,53.8108124,9.6183449
Moltkestraße,26,25335,Elmshorn,53.759146,9.666257
Große Str.,16,21769,Lamstedt,53.6361611,9.0957734
Max-Fischer-Str.,11,86399,Bobingen,48.263839,10.819303
Mittelstetter Weg,2,86830,Schwabmünchen,48.193416,10.758579
Fuggerstraße ,50,86830,Schwabmünchen,48.184229,10.757577
Sparkassenplatz,1,86830,Schwabmünchen,48.18086524,10.75965703
Raiffeisenstr.,1,86830,Schwabmünchen,48.180887,10.758283
Fuggerstraße 1,,86830,Schwabmünchen,48.17923142,10.75793807
Badstr.,21,86830,Schwabmünchen,48.17458343,10.74910504
Schulstraße,61,25368,Kiebitzreihe,53.7777293,9.6018724
Holstenplatz,5,22869,Schenefeld,53.600039,9.836387
Osterbrooksweg,42,22869,Schenefeld,53.59282,9.83427
Osterbrooksweg,73,22869,Schenefeld,53.59129,9.83156
Holtkamp,102,22869,Schenefeld,53.589472,9.817519
Kiebitzweg,2,22869,Schenefeld,53.60390243,9.836133933
Kiebitzweg,24,22869,Schenefeld,53.60466,9.837175
Kiebitzweg,22,22869,Schenefeld,53.604284,9.836477
Jahnstraße,21,22869,Schenefeld,53.607191,9.846117
Flachter Straße,5–9,71277,Rutesheim,48.8086355,8.9451757
Saarstraße,20,74172,Neckarsulm,49.1897693,9.2342347
Dorfstraße ,43,25370,Seester ,53.718324,9.597823
Kieler Straße,53,24768,Rendsburg,54.308965,9.692687
Siebenstücken,14,24558,Kisdorf,53.811623,9.973221
Itzlishofer Str,,86850,Willmatshofen,48.2754096,10.65898435
Hauptstr.,16,86850,Fischach,48.288374,10.655889
Ortsstr.,16,86850,Fischach,48.283215,10.617668
Raiffeisenstr.,5,86863,Lanenneufnach,48.264644,10.607814
Rathausstraße ,62,86863,Langenneufnach ,48.258539,10.60575
Uetersener Str,8,25436,Heidgraben ,53.705246,9.682973
Bismarckstraße ,8,25336,Klein Nordende,53.7352962,9.659231
Holstenplatz,2,25335,Elmshorn ,53.7545632,9.657332
Raboisenstrasse,43,25336,Elmshorn ,53.74065,9.65198
Am Butterberg,10,25336,Klein Nordende,53.7288261,9.6555449
Schulstraße ,30,25336,Klein Nordende,53.72708,9.65803
Dorfstrasse,80,25336,Klein Nordende,53.7260177,9.6638783
Schulstraße ,35,25336,Klein Nordende,53.72569,9.65787
Schulstraße ,58,25336,Klein Nordende,53.7251,9.6538501
Schulstraße ,1,25336,Klein Nordende,53.72664,9.6628699
Marktplatz,1,70734,Fellbach,48.80852,9.27575
Mühlsteig,23,87616,Marktoberdorf,47.77319,10.61125
Bernsbacher Straße,1,65232,Taunusstein,50.1347186,8.1508693
Babelsberger Straße,,14473,Potsdam,52.391932,13.066576
Breite Straße,13,14467,Potsdam,52.3959643,13.0507919
Friedrich-Ebert-Straße,80,14469,Potsdam,52.406473,13.0563359
Hinter den Höfen,18,31628,Landesbergen,52.557969,9.121894
Pestalozzistraße,50,70736,Fellbach,48.8179489,9.2755116
Reuttierstraße,39,89231,Neu-Ulm,48.3939448,10.0102487
Kantstraße,8,89231,Neu-Ulm,48.399895,10.011091
Ohechaussee ,169,22848,Norderstedt,53.6710445,9.9828451
Holzmarkt,1a,25712,Burg,53.997831,9.263352
Am Sportplatz ,1,25712,Burg,54.003001,9.255117
Holzmarkt,7,25712,Burg,53.997912,9.262138
Georg-Wilhelm-Str ,189,21107,Hamburg ,53.4949662,9.9900855
Lesumbroker Landstraße,70,28719,Bremen,53.15799,8.6933
Berliner Str. ,2,73732,Esslingen am Neckar,48.7359543,9.2989927
Vertrekpassage,3,1118 AP,Schiphol,52.31067,4.76068
Hauptstraße,36,57562,Herdorf,50.778654,7.9509242
Kölner Straße,53,57290,Neunkirchen,50.7946496,8.0113466
Hauptstr,31,87787,Wolfertschwenden,47.8922769,10.2666261
Tecklenburger Weg,22,33428,Harsewinkel,51.9650537,8.2159673
Bremer Heerstraße,30,27711,Osterholz-Scharmbeck,53.2533771,8.7106496
Hölzleweg,4,86850,Tronetshofen,48.267335,10.647492
Plattenweg,1,86850,Siegertshofen,48.255095,10.64097
Angerstr.,14,86866,Mickhausen,48.213049,10.617636
Eichenstr.,10,86866,Mickhausen,48.229111,10.634461
Schlosshof,1,86866,Mickhausen,48.241374,10.638585
Efeuweg,2,63741,Aschaffenburg,49.962442,9.126478
Sachsenhausen ,16,63773,Goldbach ,49.99838896,9.182236827
Am Badesteig,5,24576,Bad Bramstedt,53.918553,9.887192
Bergstraße ,7,83410,Laufen,47.922337,12.893957
Rosenheimer Straße,15,81667,München,48.1296718,11.5924092
Großer Moorweg,30,25436,Tornesch,53.6912762,9.7325076
Wilhelm-Varnholt-Allee,5,68165,Mannheim,49.4763049,8.4971416
Leipziger Straße,1,25551,Hohenlockstedt,53.968043,9.6180371
Finnische Allee,16,25551,Hohenlockstedt,53.96743,9.61927
Finnische Allee,22,25551,Hohenlockstedt,53.96926,9.62106
A8,,70599,Stuttgart,48.69422604,9.195724055
Christoph-Probst-Straße,16,80805,München,48.1837099,11.6094615
Kaiserallee,6a,23570,Lübeck,53.9673138,10.8803755
Am Spritzenhaus,2,22885,Barsbüttel,53.589452,10.238702
Am Dreswinkel ,23,34431,Marsberg,51.517516,8.8684996
Am Darmstädter Schloß,6,64823,Groß-Umstadt,49.8699052,8.9306971
Mühlsteig,23,87616,Marktoberdorf,47.77319,10.61125
Mönkhofer Weg,136,23562,Lübeck,53.837674,10.699242
Alfred-Nobel-Str,15,79761,Waldshut-Tiengen,47.61564,8.241942
Mitteldorfstr,4,79688,Hausen im Wiesental,47.681442,7.841011
Bläserstr,73,79576,Weil am Rhein,47.58998,7.62661
Eimeldinger Weg,40,79576,Haltingen,47.617966,7.607062
Riedlistr,10,79576,Weil am Rhein,47.591294,7.601304
Riedlistr,15,79576,Weil am Rhein,47.591702,7.601012
Am Alten Markt,2,79539,Lörrach,47.611162,7.661406
Meeraner Platz,1,79539,Lörrach,47.6082964,7.6585312
Hauptstr,17-19,79540,Lörrach,47.602002,7.661282
Rippolingerstr,2,79713,Bad Säckingen,47.558293,7.945932
Tiroler Straße,8,83242,Reit im Winkl,47.6768249,12.46759
NSU-Straße,1,74172,Neckarsulm,49.194268,9.2216232
Werner-von-Siemens-Str,,36041,Fulda,50.56003987,9.596666391
Goldbacher Straße,2,63739,Aschaffenburg,49.9782191,9.1513811
Karolinenplatz,5,64289,Darmstadt,49.8747804,8.6561818
Bahnhofstraße,69,39104,Magdeburg,52.129372,11.628097
Rathausstraße,2,26736,Krummhörn,53.4355,7.093468
Hafenstraße,,26506,Norden,53.62069104,7.157832406
Bunter Weg,15,26736,Krummhörn,53.4386657,7.091372034
Große Bahnstraße,31,22525,Hamburg,53.57358,9.937134
Marktplatz,12,9535,Kasendorf,50.036144,11.350206
Schleusinger Straße,,98708,Gehren,50.64297783,10.98907508
Neuenkoog,7,25761,Westerdeichstrich,54.15274,8.82437
Wilhelm-Johnsen-Straße,9,25715,Eddelak,53.94794,9.146198
Bergmannring,4,22119,Hamburg,53.5566748,10.102342
Wittestraße,11,21109,Hamburg,53.5009221,10.0087167
Heideweg,1a,2542,Appen-Etz,53.635064,9.756704
Schildstraße,12,28203,Bremen,53.071937,8.822429
Heinrich-Meibom-Straße,,23562,Lübeck,53.83618995,10.70539475
Roggenweg,1,22926,Ahrensburg,53.6786142,10.2566332
Hauptstraße,2–12,25497,Prisdorf,53.672332,9.775416
Alleestraße,2,66292,Riegelsberg,49.3086795,6.9381836
Rungholtstraße,1,25746,Heid,54.202154,9.100204
Bleicherstraße,47–57,28203,Bremen,53.07082275,8.81873955
Im Neuenheimer Feld,440,69120,Heidelberg,49.41672,8.663043
Darmstädter Straße ,111,64846,Groß-Zimmern,49.871435,8.81149
Im Neuenheimer Feld,440,69120,Heidelberg,49.41672,8.663043
Schulstraße,13,24817,Tetenhusen,54.3507423,9.4988977
Buchenweg,4,6188,Landsberg ,51.477795,12.128004
Rußdorfer Straße,10,9212,Limbach-Oberfrohna,50.8625412,12.7367163
Lindenstraße,23,9212,Limbach-Oberfrohna,50.8611606,12.7553661
Kirchweg,30,24558,Henstedt-Ulzburg,53.794135,9.9798075
Raiffeisenstraße ,8,85298,Scheyern,48.500246,11.456134
Nittenauerstraße ,1,92449,Steinberg,49.276808,12.181304
Dieselstraße,1,24223,Schwentinental,54.2866277,10.2266831
An der Schule,1,25594,Vaale,54.001606,9.37482
An der Schule,1,2559,Nutteln,54.001606,9.37482
Lornsenstraße,148A,22869,Schenefeld,53.61116,9.84046
Jahnstraße,16,25348,Glückstadt,53.79891192,9.422791291
Klosterbergenstraße ,1b,21465,Reinbek,53.512263,10.249817
Elbingstraße,15,23569,Lübeck,53.924854,10.821263
Kiebitzweg,22,22869,Schenefeld,53.604284,9.836477
Am Fliegerhorst,17,99947,Bad Langensalza ,51.124259,10.629524
Illebener Weg,11b,99947,Bad Langensalza ,51.102611,10.65353
Fritz-Staiger-Straße,15,25541,Brunsbüttel,53.9143233,9.1624476
Illebener Weg ,11b,99947,Bad Langensalza ,51.102611,10.65353
Tirolerstraße,,83242,Reit i,47.67026917,12.45441685
Willy-Brandt-Straße,37,63450,Hanau,50.12687,8.92838
Sebastian-Pöttinger-Weg,5A,85521,Ottobrunn,48.0672648,11.6555975
Julianenburger Straße,9,26603,Aurich,53.4656366,7.4779988
Am Stadion,20,26607,Aurich,53.5183284,7.4719502
Stürenburgweg,44,26607,Aurich,53.5233958,7.4786012
Fasanenweg ,3,2746,Kellenhusen ,54.194958,11.059386
Suchskrug,1-Mar,24107,Kiel,54.347,10.094188
Rathausplatz,1,79574,Weil am Rhein,47.593552,7.611947
Luisenstraße,6,79539,Lörrach,47.615828,7.662803
Belchenstrasse,19,79539,Lörrach,47.613197,7.66545
Brombacher Straße 2 79539 Lörrach,2,79539,Lörrach,47.614814,7.666721
Alfred Ley Straße ,12,99310,Arnstadt,50.855711,10.95549
An der Schanz,3,50735,Köln,50.96433,6.98377
Zum Schöttelbach,19,37181,Hardegsen,51.6421,9.8268001
Sankt-Floriansweg,1,2979,"Elsterheide, OT Nardt",51.450863,14.187754
Großbüchlberger Straße,2,95666,Mitterteich,49.95023,12.24102
Am Kamp,23,23730,Schashagen,54.2195623,10.8766662
Südstrand,9,25761,Büsum,54.12809,8.85707
Würzburger Straße,19,90427,Nürnberg,49.5214209,11.0234038
Herboldshofer Straße,27,90427,Nürnberg,49.5169974,11.0198509
Glückaufstr.,14,83666,Waakirchen,47.771074,11.68382
Karl-Königsdorfer-Straße,36A,89335,Ichenhausen,48.3665026,10.3149032
Dorfstraße,78C,6542,Nienstedt,51.43571,11.39467
Flensburger Straße,82,24376,Kappeln,54.6659037,9.9123059
A3,,63512,Hainburg,50.05537763,8.909852834
Alte Römerstraße,7,41363,Jüchen,51.1000977,6.4574216
Ortolfstraße,158,12524,Berlin,52.40533,13.5312
Endertplatz,1,56812,Cochem,50.14754,7.166841003
Pauluseck,8,66564,Ottweiler,49.40353,7.16171
Ottenser Hauptstraße,30,22765,Hamburg,53.5521444,9.929466
Gulbranssonstraße,43,81477,München,48.08188,11.50511
Schulstraße,3,25492,Heist,53.6543482,9.657550596
Fünfhausen,3,23611,Bad Schwartau ,53.9211215,10.690847
Hengebachstr,14,52396,Heimbach,50.633643,6.477942003
Schlossstrasse,2,23701,Eutin,54.137527,10.616916
Dorfstraße ,13,25719,Barlt,54.014944,9.058272004
Plettenberger Str,6,58849,Herscheid,51.17363,7.7450596
Mühlenweg,,12529,Schönefeld,52.3723857,13.476086
Auf den Strengen,10,27619,Schiffdorf,53.53532691,8.659483999
Auf der Budenbach,4,56281,Dörth,50.158027,7.581527
Escher Straße,29,56729,Kirchwald,50.37075,7.15442
Ohlenfeldstraße,2,56154,Boppard,50.2152,7.54117
Schloßstraße,60,22041,Hamburg,53.570958,10.071046
Forellenweg,25-29,72116,Mössingen,48.3858291,9.1007818
Steinen Esch,1,48231,Warendorf,51.977092,7.898016004
Haagenerstr,2,79539,Lörrach,47.614697,7.661501003
Lörracherstr.,1,79541,Lörrach,47.63446,7.692574297
Heisterfeld,7,25489,Haselau,53.660497,9.627219004
Wettringenerstr,1,48612,Metelen,52.1451386,7.219083904
Hauptstraße,5,79199,Kirchzarten,47.96462,7.954725003
Zum Erlenbusch,3,51709,Marienheide,51.09118,7.493300003
Gummersbacher Straße,107,51709,Marienheide,51.058037,7.551913003
Auf der Vogelruthe,19,51709,Marienheide,51.069894,7.578826003
Schemmen,2,51709,Marienheide,51.066583,7.559415003
Klosterstr,23,51709,Marienheide ,51.087065,7.533828003
Heinrich-Heine-Ring,142B,18435,Stralsund,54.32083,13.0574701
Tröndlinring,,4105,Leipzig,51.3444423,12.3724487
Hermann lamprecht Straße ,5,27442,Gnarrenburg ,53.3841766,9.0032418
Hindenburgstraße,1B,27442,Gnarrenburg,53.3745949,9.00800355
Hindenburgstr ,59,27442,Gnarrenburg ,53.38031465,9.0040697
Schenefelder Str.,1,25596,Wacken,54.019934,9.376781
Babelsberger Straße,14,14473,Potsdam,52.3926236,13.0668019
Breitestraße ,20,78234,Engen ,47.8559491,8.77536995
Hiroshimaplatz,1-Apr,37083,Göttingen,51.52846,9.94018
Weender Landstraße,21,37073,Göttingen,51.5412154,9.9327946
Am Markt,11,23730,Neustadt in Holstein,54.10762,10.8136515
Dr.-Wilhelm-Külz-Straße,35,6526,Sangerhausen,51.4782658,11.2993199
Hauptstraße,57-59,6295,Lutherstadt Eisleben,51.50776,11.57152
Markt,1,6295,Lutherstadt Eisleben,51.5281418,11.5455704
Hamefelddamm,1-May,41460,Neuss ,51.192948,6.70896745
Berliner Allee,38-44,22850,Norderstedt,53.6846316,9.98627
Karl-Fischer-Straße,13,6295,Lutherstadt Eisleben,51.5304,11.55698
Seminarstraße,10,25436,Uetersen,53.6869762,9.6555086
Tennstedt,1,6526,Sangerhausen,51.4748,11.30668
Dr.-Wilhelm-Külz-Straße,35,6526,Sangerhausen,51.4782658,11.2993199
Markt,1,6295,Lutherstadt Eisleben,51.5281418,11.5455704
Hauptstraße,46,6295,Lutherstadt Eisleben,51.50764,11.57119
Breiter Weg ,105,6295,Lutherstadt Eisleben,51.52892,11.54009
Krankenhausstraße,1,9526,Olbernhau,50.65416967,13.34781581
Auf der Leer,10,64807,Dieburg,49.89799,8.83199
Herstallstraße,26,63739,Aschaffenburg,49.9755506,9.1474231
Ludwigstraße,2-Apr,63739,Aschaffenburg,49.96732,9.20985
Rathausplatz,1,64846,Groß-Zimmern,49.873695,8.8333304
Angelgartenstraße,64B,64846,Groß-Zimmern,49.8750902,8.8194414
Am Festplatz,1,64846,Groß-Zimmern,49.87488,8.81971
A8,,85649,Brunnthal,47.99811301,11.67551813
Brauereiweg,7,27751,Delmenhorst,52.9354504,8.3807889
Freudental,19A,25746,Heide,54.20078745,9.07792475
Dorfstraße,32,25795,Stelle-Wittenwurth,54.2568121,9.0663626
Dückerstieg,7,25554,Neuendorf-Sachsenbande,53.9474534,9.3495487
Fasanenweg ,3,23746,Kellenhusen (Ostsee),54.1949888,11.05945005
Esmarchstraße ,50,25746,Heide,54.19919185,9.0812314
Auedamm,3,21640,Horneburg,53.5076594,9.5839163
Kabelkamp,3,30179,Hannover,52.412228,9.7316348
,,76437,Rastatt,48.8571115,8.2079087
Birkenstraße,1,82131,Gauting,48.0788254,11.3762185
Auf dem Bruche,3,31832,Springe,52.20194602,9.55966356
Alte Chaussee,9,25541,Brunsbüttel,53.89462,9.15945
Dorfstraße,2,82131,Gauting,48.06646,11.32487
Hauptstraße,23,25488,Holm,53.6192377,9.6740818
Anna-Zammert-Straße,27,30171,Hannover,52.36586,9.7632308
Lindenallee,86,27612,Loxstedt,53.48584,8.68686
Brummerackerweg,6,25499,Tangstedt,53.67665242,9.848002726
Plöner Straße,1,23714,Malente,54.1636962,10.5475663
Dudenstraße,23,68167,Mannheim,49.49861095,8.50390445
Hempbergstraße,1,25462,Rellingen,53.62975,9.8689098
August-Kuhn-Straße,33,68167,Mannheim,49.50165515,8.4799834
Spreewaldallee,44-50,68309,Mannheim,49.515697,8.556517997
Auf dem Sand,78,68309,Mannheim,49.51528965,8.50935835
Hugo-Wolf-Straße,3,68165,Mannheim,49.47708765,8.48715005
Meldorfer Straße,43,25770,Hemmingstedt,54.1558252,9.0781403
Medorfer Straße ,12,25770,Hemmingstedt,54.14674205,9.0717932
Thomas Mann Platz,18,9112,Chemnitz,50.8453125,12.9386798
Pinnauallee,3,25436,Uetersen,53.68029,9.67923
Holtenauer Straße,183,24118,Kiel,54.3446364,10.1328232
Bayrutherstr ,39,91338,Ig,49.62470585,11.24008285
Dorfstraße,32,25795,Stelle-Wittenwurth,54.2559792,9.0666134
Bleichstrasse,14,74821,Mosbach,49.353,9.14225
Am Burggraben,1,25361,Krempe,53.83482,9.49459
Ludwig-Thoma-Straße,3A,49377,Vechta,52.7408666,8.2856832
Hindenburgstraße,30,28717,Bremen,53.16817,8.69085
Ernst-August-Platz,1,30159,Hannover,52.3765267,9.7410381
Blumenstraße,18,66497,Contwig,49.24400185,7.427259398
Papierweg ,2,79400,Kandern,47.7118956,7.65902635
Rosenkopfer Straße,28,66894,Bechhofen,49.3471401,7.4123901
Steinstraße ,2,23845,Bühnsdorf,53.88809886,10.3730759
Georg-Kerschensteiner-Straße,27,23554,Lübeck,53.88298496,10.675649
Untermarkt ,4,82418,Murnau,47.67791577,11.20072
Brakeler Wald ,18,45239,Essen,46.43449124,-122.7828303
Maybachstraße,2,25980,Sylt,49.60636343,8.987936597
Fünfhausen ,1,23611,Bad Schwartau ,53.92065527,10.6903017
Wilhelmstraße,7,25980,Sylt,54.907898,8.308444996
Weststraße, 72-74,59227,Ahlen,51.76330889,7.888396996
Am Oxer,40,24955,Harrislee,54.794152,9.369195
Friedrichstraße ,18,25980,Sylt,54.907785,8.304255996
Eduard-Rhein-Ufer,1,22087,Hamburg,53.56785995,10.015464
Neustädter Passage,17,6122,Halle (Saale),51.47946189,11.92048
Löwenstraße ,58,20251,Hamburg,53.58723395,9.973801896
Merkurring,111,22143,Hamburg,53.60744795,10.191487
Pastor-Fuchs-Straße,14,66687,Wadern,49.48562872,6.838495897
Löwenstraße ,58,20251,Hamburg,51.117027,10.333652
Wolgaster Straße,63,17489,Greifswald,54.091972,13.417766
Rheinlandstraße,84,73312,Geislingen an der Steige,48.6277928,9.823238
Martinistrasse,78,20251,Hamburg,53.5883764,9.9726238
Friedrich-Ebert-Strasse,25,25421,Pinneberg,53.6621352,9.8002277
Gehrstücken,3,25421,Pinneberg,53.64744,9.82209
Hauptstrasse,60,25462,Rellingen,53.65143,9.83016
Bergmannring,4,22119,Hamburg,53.55649,10.102
Vale farm,1,HA0,Wembley,51.54847329,-0.309276404
Airbus-Strasse,2,21684,Stade,53.5718174,9.5075076
Steinbacherstr ,9,36088,Hünfeld ,50.70825086,9.773481997
Bahnhofstraße ,1a,67126,Hochdorf-Assenheim,49.41357472,8.273451997
Scharnhagener Straße ,6,24229,Dänischenhagen ,54.3020188,9.9358142
Von Opel Straße ,8,79761,Waldshut,47.62511246,8.254739997
Hauptstr.,34,71154,Nufringen,48.6231504,8.892369397
Öjendorfer Weg,4,22111,Hamburg,53.53961,10.10921
Peter-Thumb-Straße,1,79761,Waldshut- Tiengen,47.63438077,8.274122997
Lohmühlenstrasse,5,20099,Hamburg,53.5585033,10.0186905
Alphonsstrasse,14,22043,Hamburg,53.5698592,10.0884579
Fahltskamp,74,25421,Pinneberg,53.6549946,9.8110512
Alfredstrasse,9,22087,Hamburg,53.5591559,10.0308533
Lehmweg,14,20251,Hamburg,53.58010795,9.977396
Schleswiger Chaussee,91,24768,Rendsburg,54.31566,9.6346
Am Kanal ,50,24768,Rendsburg,54.3065409,9.7083831
Sengel,1,24629,Kisdorf,53.81033,10.00985
Marienplatz,28,88212,Ravensburg,47.7820228,9.6137883
Mühlenberg ,1,25541,Brunsbüttel,53.89376,9.1068
Hasenfeldee Straße,12,52396,Heimbach,50.6333925,6.4807774
Hauptstraße,3,25474,Ellerbek,53.65799,9.87086
dorfstraße ,49,23815,Geschendorf,53.84501,10.2413772
Kohlmarkt,25,25554,Wilster,53.92427,9.37772
Schoolredder,2,24220,Flintbek,54.258948,10.0832593
Flensburger Chaussee,28,25813,Husum,54.4827,9.06891
Büttelweg,6,25704,Meldorf,54.0899822,9.0754881
Suchskrug,1-Mar,24107,Kiel,54.3470365,10.0941815
Bahnhofstraße,31,22880,Wedel,53.5780629,9.705942
Halstenbeker Weg,100,25462,Rellingen,53.642447,9.8379612
Bundesstrasse,70,25495,Kummerfeld,53.6906332,9.7913212
Bismarckstrasse,8,25421,Pinneberg,53.6622219,9.7971923
Friedrich-Ebert-Strasse ,33,25421,Pinneberg,53.66253,9.7979677
Am Hafen,81,25421,Pinneberg,53.66432,9.77804
Burmeisterallee,6,25421,Pinneberg,53.65133,9.80425
Büsumer Straße ,9,25764,Wesselburen,54.210414,8.9247315
Röhlingsplatz,1,24768,Rendsburg,54.3032076,9.6677588
Agnes-Karll-Allee,19,25337,Elmshorn,53.75273,9.68575
Alte Dorfstraße,1,24635,Rickling,53.9827873,10.1703124
Bahnstraße,15,25436,Uetersen,53.68029296,9.678116996
Zur Alten Mühle,2,24808,Jevenstedt,54.23141908,9.666666396
Rungholtstraße ,8,25746,Heide ,54.20577408,9.099301596
Birkenweg,3,25704,Nindorf,54.0868361,9.1214355
Große Mühlenstrasse,5,24589,Nortorf,54.2152096,9.7931654
Hilperdinger Weg,51,29664,Walsrode,52.8662541,9.6068901
Westring,444,24118,Kiel,54.34144098,10.127224
Holstenhofweg,47,22043,Hamburg,53.57479,10.10449
Im Dorf,41,32469,Petershagen,52.37091,9.0454
Ringstraße ,1,25709,Kronprinzenkoog ,53.97139197,8.964905896
Kiebitzweg,24,22869,Schenefeld,53.60466095,9.837174996
Halstenbeker Weg,100,25462,Rellingen,53.64288986,9.838888996
Schulweg,2,25462,Rellingen,53.6486524,9.8572469
Lütten Hall,1,25469,Halstenbek,53.6408432,9.8357629
Am Postberg ,2,7819,Triptis,50.737777,11.8664597
Kösterbergstraße ,32,22587,Hamburg ,53.56438395,9.791394996
Am Weinberg,2,22926,Ahrensburg,53.6791177,10.2446208
In de Krüm,60,21147,Hamburg,53.47564195,9.860285996
Krankenhausstraße,57,23795,Bad Segeberg,53.9403767,10.3072125
Kurvenstraße,10A,22043,Hamburg,53.56721324,10.07410915
หมู่ 1,999,10540,Bang Phli,13.69209307,100.7508373
Falkenberger Straße ,28,4916,Herzberg (Elster),51.6850578,13.2269727
Möllner Landstraße,3,22111,Hamburg,53.5409465,10.1049823
Sandbarg,8a,25853,Bohmstedt ,54.57826599,9.049565996
Meldorfer Straße ,42,25774,Hemmingstedt ,54.18995698,9.089833996
Markt,1,21509,Glinde,53.54134095,10.214361
Böwerweg,6-Aug,25853,Bohmstedt,54.5809494,9.0470708
Hauptstraße ,79,25482,Appen,53.6594972,9.7401545
Martinistrasse,52,20251,Hamburg ,53.58965835,9.975089896
Max-Schmelibg-Str.,6,27389,Stemmen ,53.21484094,9.550807996
Westerstraße,54,25336,Elmshorn,53.74896,9.64784
Ettlinger Straße,3,76437,Rastatt,48.8657959,8.2230136
Feldstraße,14,85521,Ottobrunn,48.06906,11.65526
Falkenberger Straße,28,4916,Herzberg (Elster),51.6851195,13.2277812
Berliner Tor,21,20099,Hamburg,53.5561104,10.0222161
Sandkuhle,14,25524,Itzehoe,53.92597,9.51957
Am Ebersoll ,2,21526,Hohenhorn ,53.47962795,10.359453
Deutschordensplatz,1,74172,Neckarsulm,49.1945743,9.2266438
Ziegelstraße,2-Apr,23556,Lübeck,53.87093,10.66551
Oberstraße,56,25524,Oelixdorf,53.92885,9.57129
Am Atzelhorst ,3,64569,Nauheim,49.95451384,8.463391997
Rehbachweg,,67065,Ludwigshafen am Rhein,49.4533007,8.4358368
Lindenschmitweg,2,83666,Waakirchen,47.77202498,11.6731925
Hauptstraße,16,74821,Mosbach,49.3510119,9.1438064
Hauptstraße ,28,26465,Langeoog ,53.74590796,7.485652996
Rudolf-Höckner-Str ,6,22880,Wedel,53.58420695,9.693887996
Brühlsbachstraße,2A,35578,Wetzlar,50.55332,8.50569
Poststraße,7,25746,Heide,54.1984076,9.0863221
Hafenstraße,2,25746,Heide,54.1920073,9.0912695
Anger ,1,99094,Erfurt,51.1191898,6.9512663
Brüdergasse,8,53111,Bonn,50.73579,7.1029
Breitscheidstraße,16,39114,Magdeburg,52.1420055,11.6777044
Vogelkoje,,25999,Kampen (Sylt),54.975993,8.3579427
Eichenkamp,10,24802,Bokel,54.21796,9.79318
Johannes-Bieg-Straße,21,74391,Erligheim,49.0217102,9.0941838
Süderstrasse ,4,24568,Kaltenkirchen,53.82736676,9.970600696
Auf dem Knapp,23,42855,Remscheid,51.18396988,7.230524
Leipziger Straße,2,34123,Kassel,51.31405,9.50811
Klaus-Groth-Straße,2,22926,Ahrensburg,53.6749693,10.2380713
An der Kirche,4,23701,Süsel,54.07649,10.71688
Schwienkuhler Weg,2,23738,Lensahn,54.21748,10.8949
Niederwaldstraße,1,63538,Großkrotzenburg,50.0889976,8.9833404
Moltkestraße,10,25421,Pinneberg,53.6590078,9.7973782
Bellmuther Straße,5,63691,Ranstadt,50.35716,8.98949
Konsul-Lorentzen-Straße,3,24376,Kappeln,54.6588165,9.9246668
Schleswiger Straße,130,24941,Flensburg,54.7616942,9.4345851
Elmshorner Str.,35,25358,Horst (Holstein),53.81066496,9.619059996
Holm,57 -61,24937,Flensburg,54.7837001,9.4383276
Gressstraße,6,25821,Bredstedt,54.62332379,8.97269125
Großer Ring,14,25492,Heist,53.65272516,9.65553185
Fritz-Berend-Straße,63,49090,Osnabrück,52.2948193,8.0082507
Werftstraße,112,24143,Kiel,54.3175263,10.1544632
Sandberg,20,21483,Basedow,53.42303,10.58584
Bornbarch,1,22848,Norderstedt,53.664145,9.9845131
Rosengarten,18,22880,Wedel,53.5813761,9.7096215
Industriestraße,16,39576,Stendal,52.5849833,11.8757856
Gasstraße,18,25524,Itzehoe,53.9308116,9.4967953
Steinmüllerallee,1,51643,Gummersbach ,51.02318647,7.56246725
An der Feuerwache,2,25436,Tornesch,53.6876461,9.7221356
Tränkeweg,1,24794,Borgstedt,54.3301721,9.7084616
Kattrepel ,9,27570,Bremerhaven ,53.60070076,8.53292575
Tjarksweg,1a,25718,Friedrichskoog,54.01188902,8.90186035
Lindenstraße,1,25548,Kellinghusen,53.9496067,9.7181863
Eichenstraße,112,25486,Alveslohe,53.7897075,9.9218345
Jahnstraße,10,33014,Bad Driburg,51.7347572,9.01633
Am Friedrichsbrunnen,2,24782,Büdelsdorf,54.3125419,9.6757358
Rieper Weg,8,25832,Tönning,54.3137684,8.9355987
Unnamed Road,,25813,Husum,54.4788126,9.0045949
Ringstraße,145,22145,Hamburg,53.6359918,10.1637923
Bücherweg,14,61130,Nidderau,50.217874,8.8759953
Steindamm,6,25485,Hemdingen,53.76248466,9.836026496
Hermann-Balk-Str.,114,22147,Hamburg,53.6137766,10.1360716
Schweriner Straße,22D,25761,Büsum,54.13951,8.86345
Schloßstraße,1,74743,Seckach,49.44349,9.28847
Kirchspielweg,3,25746,Heide,54.18881137,9.090778596
Eiland,1,25840,Friedrichstadt,54.37451,9.0841
Seestraße,3,17268,Templin,53.1225533,13.5028259
Nordstrander Straße,9,25746,Heide,54.2054062,9.1029433
1.Kompanieweg,3,26632,Ihlow,53.409596,7.443666
Burger Straße,3,25554,Wilster,53.9233615,9.3750257
Steindamm,11,25554,Wilster,53.9249683,9.3830598
Ringstrasse,143,22145,Hamburg,53.6359009,10.1635012
Auf der Höhe,25,21109,Hamburg,53.5059955,10.0120802
Klaus-Groth-Straße ,2-Apr,22926,Ahrensburg,53.674662,10.237924
Ewoldtweg,2,24944,Flensburg,54.82169,9.472903
Bahnhofstr,29-31,24582,Bordesholm ,54.22530638,10.10210573
Lorentzendamm,24,24103,Kiel,54.326619,10.135704
Bültbek,27,22962,Siek,53.63753005,10.2819217
Gehrstücken,3,25421,Pinneberg,53.64744,9.82209
Kätnerskamp ,2,24220,Flintbek ,54.24226,10.063104
An der Bahn,1,24220,Flintbek,54.239942,10.057517
Zum Kurstrand,,24229,Surendorf,54.479379,10.074778
Dorfstrasse,14,24220,Flintbek ,54.237777,10.070171
Kleinflintbeker Straße,26,24220,Flintbek,54.258944,10.083195
Seekoppelweg,5a,24113,Kiel ,54.2973363,10.087465
Raiffeisenstraße,2,24103,Kiel,54.315932,10.133182
Seestraße,13-15,24229,Schwedeneck,54.475543,10.069451
Postillionweg,24,24113,Kiel,54.294238,10.103515
Bahnhofstraße,22,24217,Schönberg,54.390423,10.373409
Hanseaten-Platz,1,25524,Itzehoe,53.931831,9.524978
Langstücken,2a,24220,Flintbek Voorde,54.251232,10.060409
Zum Kurstrand,,24229,Schwedeneck,54.474725,10.029406
Verbrüderungsring,41,21493,Schwarzenbek ,53.51096,10.49209
Hopfenstrasse,2d,24114,Kiel,54.3138283,10.1276049
An der Untereider,29 - 31,24768,Rendsburg,54.30343,9.65433
Holstentorplatz,1-May,23552,Lübeck,53.865566,10.677862
Strandstraße,,24235,Stein ,54.418162,10.268735
Hochacker,15,25862,Goldelund,54.674578,9.111025
Kiefernbogen,3,21509,Glinde,53.55631509,10.22079097
Olivet-Allee,15,23843,Bad Oldesloe,53.806836,10.364915
Oersdorfer Weg,15a,24568,Kaltenkirchen,53.833885,9.97383
Wiesengrund,2,24220,Schönhorst,54.225872,10.108578
Am Kurpark,16,23843,Bad Oldesloe,53.801452,10.3763
Lindenplatz,11,24582,Bordesholm,54.17594,10.01102
Osterklanxbüll,4,25924,Klanxbüll,54.86679,8.679404
Schulstraße,25,25335,Elmshorn,53.754452,9.652828
Hauptstrasse,9,24983,Handewitt,54.765424,9.324532
Norderstraße,18-20,25813,Husum,54.477815,9.054374
Postlandstraße,60,23774,Heiligenhafen,54.368822,10.989301
Redderkoppel,11a,24159,Kiel,54.40398,10.17047
Freesenburg,8,24537,Neumünster,54.070668,9.938018
Kuhberg,35-37,24534,Neumünster ,54.0746355,9.9838231
Ringstrasse,37-39,24114,Kiel,54.315857,10.12498
Großflecken,59,24534,Neumünster,54.070409,9.988278
Eekholt,1,24623,Großenaspe,53.948593,10.029852
Justus-von-Liebig-Straße,2-Apr,24537,Neumünster,54.092332,9.976509
Zwischen den Deichen,,25761,Warwerort / Büsum,54.141144,8.931148
Dorfstraße,42,24646,Warder,54.213266,9.879651
Krattredder,55,24787,Fockbek,54.309196,9.58522
Jahnstraße,8a,24116,Kiel,54.33084,10.12662
Hanseatenplatz,2,25524,Itzehoe,53.931668,9.526336
Deichstrasse,4,25881,Westerhever,54.384198,8.650732
Schmiedestraße,5,25348,Glückstadt,53.774352,9.438832
Fördestraße,16,24944,Flensburg,54.812107,9.465774
Geschwister-Scholl-Straße,9,24143,Kiel ,54.306568,10.162364
Saunaring,6,23669,Timmendorfer Strand,53.998146,10.78352
Tönsheide,10,24613,Aukrug-Tönsheide,54.058401,9.766567
Fördestraße,16,24944,Flensburg,54.812546,9.467131
Bahnhofstraße,31,22880,Wedel,53.578106,9.706007
Fördestraße,16,24944,Flensburg,54.812503,9.465195
Hamburger Straße,73,25746,Heide,54.19718153,9.10848141
Bismarckstrasse,8,25241,Pinneberg ,53.662222,9.797192
Oner Taarep,1,25938,4681 Utersum / Föhr,54.714628,8.408799
Mühlenstraße,31,25587,Münsterdorf,53.90013,9.53516
Zum Karpfenteich,1,23795,Fahrenkrug,53.942346,10.256381
Rudolf-Höber-Straße,1,24118,Kiel ,54.339845,10.123105
Ramskamp,20,25337,Elmshorn,53.74148375,9.68970805
Neustadt,95,25813,Husum,54.480522,9.04673
Kaiserstraße,2,24143,Kiel,54.314874,10.152327
Hafentörn,1,25761,Büsum ,54.132542,8.876618
Kaiserstraße,2,24143,Kiel,54.315382,10.15303
Leibnizstraße,17,24118,Kiel,54.347614,10.11286
Gellertstraße,18 B,24114,Kiel,54.319108,10.11275
Industriestraße,10-Dec,23840,Bad Oldesloe,53.801327,10.389351
Am Kurbad,,25826,Sankt Peter-Ording,54.313467,8.6050308
Landstraße,10,24803,2 Erfde,54.309478,9.323473
Gutenbergstraße,76,24118,Kiel,54.332897,10.115975
Christian-Albrechts-Platz,1,24118,Kiel,54.338843,10.123318
Robert-Koch-Straße,1,22851,Norderstedt ,53.686607,10.046437
Konrad-Adenauer-Straße,1,24768,Rendsburg,54.302727,9.672681
Olshausenstraße,62,24118,Kiel,54.343891,10.112805
Ludewig-Meyn-Straße,10,24118,Kiel,54.336588,10.121184
Ludewig-Meyn-Straße,4,24118,kiel,54.337999,10.121484
Am Botanischen Garten,1-Sep,24118,Kiel,54.3472137,10.1153468
Leibnitzstrasse,9,24118,Kiel,54.346642,10.111289
Otto-Hahn-Platz,4,24118,Kiel,54.340414,10.121363
Komplex OS 75,,24118,Kiel,54.345625,10.105895
Rosenstraße,,25365,Klein Offenseth-Sparrieshoop,53.7938336,9.6905616
Kurpromenade,5,23669,Timmendorfer Strand,53.998835,10.783168
An der Kirche,2,24354,Kosel,54.50653,9.75309
Eutiner Straße,15,23744,Schönwalde am Bungsberg,54.185668,10.750725
Fehrenbötler Dorfstrasse,13,24635,Fehrenbötel,53.983374,10.173123
Hamburger Chaussee,334,24143,Kiel,54.290775,10.092923
Kätnerskamp,5,24220,Flintbek ,54.243218,10.063675
Zum See,13,24223,Schwentinental ,54.283373,10.244315
Vierlander Strasse,14,21502,Geesthacht ,53.436967,10.328963
Seekoppelweg,5b,24113,Kiel,54.29821517,10.08805096
Niendorfer Straße,85,22848,Norderstedtse,53.668519,9.97245
Dorfstraße,49,23815,Geschendorf,53.922149,10.443137
Hamburger Chaussee,219,24113,Kiel,54.29530246,10.10382771
Am Soll,3,21039,Escheburg ,53.471543,10.316045
Hamburger Chaussee,334,24113,Kiel,54.294687,10.102863
Radewisch,100,24145,Kiel,54.28039,10.134868
Teichstrasse,6,23815,Westerrade,53.935707,10.4600099
Bunsenstraße,32,24145,Kiel,54.2831,10.15442
Bürgerstraße,1,22946,Trittau,53.612707,10.39309
Dorfstrasse,,24220,Techelsdorf,54.213779,10.047767
Wulfsdorfer Weg,71,22926,Ahrensburg,53.67268,10.22393
Rathausstraße,32,22941,Bargteheide,53.729845,10.268837
Dorfstraße,18a,24220,Böhnhusen,54.22132,10.06424
Eiderkamp,25,24220,Flintbek,54.2406285,10.0507611
Ostlandplatz,3-May,24610,Trappenkamp,54.042293,10.221896
Berliner Strasse,4-May,21493,Schwarzenbek,53.50149,10.48015
Hauptstrasse,67,23898,Sandesneben,53.688146,10.489519
Georg-Sasse-Strasse,35,22949,Ammersbek,53.67701,10.15032
Eutiner Ring,14,23611,Bad Schwartau,53.918218,10.693973
Hauptstrasse,1,23898,Sandesneben,53.691484,10.501571
Schauenburgerstraße,116,24118,Kiel,54.33496,10.11913
Bellmannstrasse,30,24837,Schleswig,54.517977,9.554251
Hamburger Strasse,112,22949,Ammersbek,53.678043,10.144769
Schulstrasse,23,24367,Osterby,54.452451,9.757537
Achter de Weiden,32-34,22869,Schenefeld,53.605455,9.831476
Dänischburger Landstraße,79 - 81,23569,Lübeck - Dänischburg ,53.911919,10.731883
Marie-Curie-Strasse,19,24145,Kiel,54.278696,10.162302
Kisdorfer Weg,7,24568,Kaltenkirchen,53.831258,9.9762
Süderstraße,1,25715,Eddelak,53.94608,9.13777
Am Wasserwerk,5,23795,Bad Segeberg,53.93916,10.28595
Schulstrasse,20,25175,Eddelak,53.958558,9.150754
Röntgenstraße,4,23701,Eutin ,54.12422,10.63845
Sophienblatt,20,24103,Kiel,54.316687,10.131194
Bäckergang,8,23617,Stockelsdorf ,53.89631714,10.64521605
Denkerstr.,14-22,24768,Rendsburg ,54.307743,9.661325
Kornkamp,4,22926,Ahrensburg,53.68205,10.25797
Martenshofweg,2-Aug,24109,Kiel,54.317045,10.0715621
Braunstraße,40,24145,Kiel,54.28281,10.14807
Wilhelm-Bergner-Strasse,5,21509,Glinde,53.5279,10.22305
Wilhelminenstrasse,34,24103,Kiel,54.327176,10.128853
Zur Trave,,23843,Travenbrück,53.860753,10.325769
Marie-Curie-Straße - Haus,22,23562,Lübeck,53.836891,10.702454
Elisabethstraße,72,23701,Eutin ,54.130826,10.615386
Neufeldtstrasse,10,24118,Kiel,54.34424,10.12107
Heidbergstrasse,100,22846,Norderstedt,53.7052549,9.9948728
Louisenlunder Weg,10,24357,Fleckeby,54.48357,9.69407
Falkenstraße,37a,23564,Lübeck,53.87191497,10.69721282
Norderstraße,7,25709,Marne,53.95381,9.00977
Düsternbrooker Weg,1,24105,Kiel,54.328343,10.14598
Lübecker Straße,41,23701,Eutin ,54.133483,10.618548
Stadtstraße,10,25348,Glücksstadt,53.78385724,9.42686766
Am Markt,2,22941,Bargteheide,53.726985,10.260577
Badallee,1,25826,Sankt Peter-Ording,54.30515,8.63601
Waldweg,1-Mar,22145,Braak,53.618842,10.232706
Dorfstraße,10,25566,Lägerdorf,53.8843,9.57746
Am Markt,1,25358,Horst ,53.81089,9.61785
Maleens Knoll,2,25826,Sankt Peter-Ording,54.315721,8.6045
Holstenstraße,52,23701,Eutin,54.139766,10.606977
Lindenstraße,3,24647,Wasbek,54.073181,9.896565
Tjarksweg,1b,25718,Friedrichskoog,54.0114496,8.9011235
Parkstraße,6-Dec,24534,Neumünster,54.074927,9.989383
Roonstraße,90,24537,Neumünster,54.07404,9.96742
Fahrensberg,2,24357,Fleckeby,54.48155,9.69784
Fuchsberg,1a,23683,Scharbeutz,54.02997309,10.74121311
Ernst-Barlach-Ring,12,22964,Trittau,53.60631882,10.39855421
Rothenhörn,28,24647,Wasbek,54.068635,9.895355
Dorfstraße,6,25826,Sankt Peter-Ording,54.30372,8.638478
Rendsburger Strasse,59,24534,Neumünster,54.081641,9.978711
Süderstraße,4,24568,Kaltenkirchen,53.827213,9.966554
Olivet-Alle,4-Jun,23843,Bad Oldesloe,53.8082374,10.3666979
Helene-Stöcker-Straße,2,23843,Bad Oldesloe,53.80698,10.35042
Beer-Yaacov-Weg,1,23843,Bad Oldesloe ,53.8105345,10.3727031
Wankendorfer Straße,18,24211,Preetz,54.236242,10.286329
Diekseepromenade,7-Nov,23714,Bad Malente-Gremsmühlen,54.164333,10.547723
Königsberger Straße,1,23843,Bad Oldesloe,53.8168963,10.3805488
Dorfstraße,56,24244,Felm,54.40949,0.06677
Bahnhofstraße,37-39,23714,Malente,54.1719282,10.55540241
Salinenstraße,20,23843,Bad Oldesloe,53.80749613,10.37380278
Mühlenstr.,1-Mar,24211,Preetz,54.236032,10.280902
Zum Sportplatz,2,24983,Handewitt,54.74098914,9.43445027
Raiffeisenstraße,24a,24214,Revensdorf,54.3958814,9.9328681
An der Bahn,1,24983,Handewitt,54.77584,9.28997
Oeverseering,2,24983,Handewitt,54.72466605,9.35070097
Am Kurpark,3,23611,Bad Schwartau,53.921057,10.700103
Frahmsallee,1-Jul,23714,Malente,54.16466671,10.54939091
Kirkwrahe,5,24976,Handewitt,54.7439475,9.3839483
Segeberger Straße,Nov-22,23617,Stockelsdorf ,53.88681915,10.6495446
Kieler Strasse,34,24321,Lütjenburg ,54.293627,10.57537
Neue Kampstraße,2,23714,Bad Malente,54.171508,10.566193
Frahms Allee,1-Jul,23714,Malente,54.164813,10.55021
Gehrstücken,3,25421,Pinneberg,53.64744,9.82209
Hamburger Straße,47,24568,Kaltenkirchen,53.834943,9.964308
Knooper Weg,182,24105,Kiel,54.337093,10.1327
Auf dem Berge,1,24568,Kaltenkirchen,53.843606,9.935517
Ellunder Straße,10,24983,Handewitt,54.79434975,9.31306154
Hamburger Str.,42,23843,Bad Oldesloe,53.80599,10.36715
Liselotte-Herrmann-Straße,12,24145,Kiel,54.29076,10.15695
Am Kurpark,16,23843,Bad Oldesloe,53.801452,10.3763003
Augsburger Weg,1,25813,Schwesing,54.4956582,9.1331231
Rathausplatz,4,24103,Kiel,54.323089,10.133305
Lütjenburger Weg,1002,23774,Heiligenhafen ,54.3717334,10.9704426
Bäderstraße,47,23738,Lensahn ,54.218441,10.890552
Strandstraße,152,23669,Timmendorfer Strand,53.99243105,10.83166257
Dameshöved,20,23747,Dahme,54.20262763,11.09099999
Markt,16,23774,Heiligenhafen,54.372431,10.978884
Eutiner Straße,18,23611,Bad Schwartau,53.91345884,10.69287434
Eichenholzweg,100,23774,Heiligenhafen,54.3798232,10.9525002
Holsenstraße,10,23701,Eutin ,54.14132605,10.61058182
Auguststraße,48,23611,Bad Schwartau ,53.913582,10.692841
Am Priwall,19,23701,Eutin,54.1289876,10.6186753
Alte Schulstrasse,17-21,23626,Ratekau,53.949285,10.741195
Fährhafenstraße,,23769,Puttgarden,54.49862368,11.22315109
Fährhafenstraße,,23769,Puttgarden ,54.50176907,11.22406438
Manfred-Samusch-Straße,9,22926,Ahrensburg ,53.67255141,10.23575485
Fährhafenstraße,,23769,Puttgarden ,54.50403437,11.2265233
Lübecker Strasse,18-20,23611,Bad Schwartau ,53.917537,10.698255
Kiebitzhörn,,23714,mALENTE,54.190394,10.63763
Am Priwall,12,23701,Eutin,54.128438,10.619211
Dorfplatz,2,24226,Heikendorf ,54.36944891,10.20251691
Lankenstraße,1,23758,Oldenburg in Holstein,54.2899506,10.8895984
Hermann-Sudermann-Allee,50,25333,Elmshorn,53.76893206,9.68174592
Eutiner Straße,45,23714,Bad Malente-Gremsmühlen ,54.16364,10.56153
Neversfelder Straße,11,23714,Bad Malente-Gremsmühlen  ,54.17733,10.55526
Otto-Hahn-Straße,4,25337,Elmshorn,53.74666,9.68747
Eutiner Straße,45,23714,Bad Malente-Gremsmühlen ,54.16364,10.56153
Seestraße,1,23758,Wangels,54.31071209,10.80143005
Wohldkamp,1,23669,Timmendorfer Strand,53.99915269,10.76925226
Bahnhofstraße,21a,23714,Bad Malente-Gremsmühlen,54.17042,10.55412
Am Stadion,4,23714,Bad Malente ,54.15997213,10.56118727
Schauenburger Straße,21,23758,Oldenburg ,54.2924533,10.8898432
Seestraße,1,23758,Weissenhäuser Strand ,54.31249964,10.79210535
Hubertushöhe,,23701,Eutin ,54.151448,10.595424
Plöner Landstraße,8-Oct,23701,Eutin,54.12967,10.5801
Neverstorfer Straße,7,24321,Lütjenburg,54.2944052,10.5913098
Seestraße,1,23758,Wangels ,54.3107246,10.79781175
Hauptstraße,66,22967,Tremsbüttel,53.74273,10.31013
Rudolf-Gußmann-Platz,1,23812,Wahlstedt,53.95193285,10.20923585
Jungfernstieg,3,23701,Eutin,54.135048,10.61907
Königstraße,2,23730,Neustadt in Holstein ,54.106804,10.813568
Wilhemstraße,6,23701,Eutin,54.14072,10.611
Hauptstraße,30a,24589,Eisendorf,54.19461,9.87003
Segeberger Straße,90,23866,Nahe ,53.7879127,10.13554215
Saunaring,6,23668,Timmendorfer Strand ,53.998146,10.78352
Stollbergstraße,8,23701,Eutin ,54.13629072,10.6177336
Königstraße,11,23701,Eutin,54.137449,10.615641
Peterstrasse,18-22,23701,Eutin,54.135984,10.61419
Blaue Lehmkuhle,12,23701,Eutin,54.137372,10.596564
Segeberger Straße,41,23845,Itzstedt,53.8103791,10.16124442
Poststraße,36 a-c,23669,Timmendorfer Strand,53.99546,10.78418
Rudolf-Gußmann-Platz,1,23812,Wahlstedt ,53.95198,10.209163
Timmendorfer Platz,6,23669,Timmendorfer Strand,53.99789,10.78238
Kronsforder-Allee,126a,23560,Lübeck,53.84199137,10.67612529
Strandallee,196,23669,Timmendorfer Strand,53.9906654,10.7997085
Neuer Markt,1,23743,Grömitz,54.151009,10.959097
Hauptstraße,16,23743,Grube,54.23474,11.03601
Am Schnoor,46,23743,Grömnitz,54.15707,10.96731
Kurpromenade,58,23743,Grömitz,54.143798,10.960139
Kurpromenade,56,23743,Grömitz,54.14448,10.961968
Timmendorfer Platz,10,23669,Timmendorfer Strand ,53.99768825,10.78156292
Am Kurpark,4,23683,Scharbeutz,54.026518,10.753689
Markt,15,23611,Bad Schwartau,53.91965,10.697362
Seestraße,47,23683,Scharbeutz,54.024384,10.752439
Südstrand,5,23775,Großenbrode,54.35966157,11.08970046
Am Bürgerhaus,2,23638,Scharbeutz,54.021349,10.74869
Baumalle,14,23730,Gut Beusloe,54.1228531,10.86655676
An der Post,23,25365,Klein Offenseth-Sparrieshoop,53.78458,9.68817
Husumer Strasse,20,24997,Wanderup,54.68746,9.32638
Süderstraße,101,24955,Harrislee,54.80015,9.3907732
Wilhelmstraße,7,25980,Westerland auf Sylt,54.90787,8.30788
Norderstraße,1,25855,Haselund,54.593722,9.187474
Holm,57-61,24937,Flensburg,54.7833189,9.4380982
Otto-Hahn-Straße,2-Apr,25813,Husum,54.49295,9.07623
Strandallee,143,23683,Scharbeutz,54.010507,10.769549
Friedrichstrasse,Jul-19,24534,Neumünster,54.07633,9.97922
Hamburger Landstraße,103,24113,Molfsee,54.272655,10.074864
Bei der Altenkate,2,22926,Ahrensburg,53.676654,10.2395
Wulfener Hals Weg,100,23769,Wulfen,54.40573235,11.17738858
Kirchenstrasse,11,23743,Grömitz,54.150268,10.958608
Güterstraße,2,24211,Preetz,54.231761,10.276382
Rosenstraße,2,23744,Schönwalde am Bungsberg,54.18931,10.755132
Ludwig-Jahn-Straße,5,23611,Bad Schwartau,53.918835,10.694461
Falklandstraße,1-Mar,24159,Kiel ,54.390853,10.177108
Sandkuhle,14,25524,Itzehoe,53.92602813,9.5197311
Rathausplatz,1,24937,Flensburg ,54.781036,9.433898
Strandpromenade,10,23775,Großenbrode ,54.366275,11.084645
Strandpromenade,44,23775,Großenbrode ,54.358756,11.089245
Am Kirchhof,1-May,25746,Heide ,54.198316,9.095379
Hauptstraße,74,25704,Nindorf,54.086306,9.119621
Waldstraße,1,23812,Wahlstedt ,53.952223,10.214311
Hauptstrasse,95,25715,Averlak,53.937412,9.18745
Brombeerhof,2,24960,Munkbarup,54.80321,9.56538
Seeredder,20,22952,Lütjensee,53.657366,10.377926
Sachsenwaldstraße,70,21493,Möhnsen,53.556011,10.451755
Industriestrasse,14,23769,Fehmarn OT Burg,54.445599,11.185005
Alte Landstraße,1,25693,Sankt Michaelisdonn,53.984048,9.14595
Bunendorp,11,24321,Lütjenburg,54.299031,10.577399
Otto-Hahn-Straße,1,25541,Brunsbüttel,53.891979,9.201275
Stockholmstraße,6,24109,Kiel,54.327353,10.05777
Adolf-Brütt-Str.,62,25813,Husum ,54.48539,9.04497
Friedrich-Ebert-Str.,2,25421,Pinneberg,53.661812,9.801542
Königstraße,13,24837,Schleswig ,54.514781,9.565706
Toosbüystr.,21,24939,Flensburg,54.79058,9.42837
Beidendorfer Weg,,23628,Krummesse,53.780364,10.648866
Kurpromenade,8,23743,Grömitz,54.147935,10.972426
Preußerstraße,1,24340,Eckernförde,54.465317,9.839832
Eutiner Strasse,18,23611,Bad Schwartau,53.922544,10.697997
Strandpromenade,53,23946,Boltenhagen,53.982377,11.222196
Projensdorfer Strasse,82,24106,Kiel ,54.351176,10.124985
Tondener Strasse,12,25980,Sylt Westerland ,54.918941,8.312673
Alemannenstraße,14 - 18,24534,Neumünster,54.060567,9.986151
Possehlstraße,4,23560,Lübeck ,53.852332,10.680847
Moltkestraße,9,24768,Rendsburg,54.29677,9.66733
Hubertushöh,,23701,Eutin,54.151007,10.5995
Am Riesenbett,,21521,Dassendorf,53.506736,10.369629
Osterweide,2,23562,Lübeck ,53.840004,10.709361
Industriestraße,1,23879,Mölln,53.619421,10.676437
Karkenweg,22,25853,Drelsdorf,54.60363,9.03867
Plöner Str.,84-86,24534,Neumünster,54.06982,9.998823
Meldorfer Str.,58,25746,Heide,54.188876,9.089023
Sedanstrasse,14b,24116,Kiel ,54.328382,10.109943
Altonaer Strasse,101,24539,Neumünster,54.0618832,9.9842291
Wittorfer Strasse,22-26,24534,Neumünster ,54.067961,9.985752
Gerichtsstrasse,4a,24340,Eckernförde,54.468918,9.836503
Von-der-Gröben-Strasse,2,24143,Kiel,54.30969153,10.15588269
Heiligen-Geist-Kamp,4a,23568,Lübeck,53.875658,10.708577
Strandbad am Dieksee,,23714,Bad Malente-Gremsmühlen,54.173816,10.504019
Hubertushöh,,23701,Eutin,54.15306,10.595648
Waldstraße,2,24939,Flensburg ,54.793573,9.424167
Am Holm,22-28,24937,Flesnburg,54.7853237,9.4345298
Dorfstraße,1,24969,Großenwiehe,54.70627,9.249
Lüneburger Damm,11,23909,Ratzeburg ,53.699148,10.76154
Drachenbahn,18,24159,Kiel,54.429188,10.168429
Sieker Landstrasse,203,22927,Großhansdorf,53.64781,10.278107
Bastianstraße,22a,25980,Westerland,54.910624,8.313947
Maybachstraße,2,25980,Westerland auf Sylt,54.9082,8.3049
Johannesstrasse,8,24143,Kiel ,54.313116,10.143094
Berliner Strasse,53,23611,Seeretz / Ratekau,53.923208,10.737591
Sankt-Florian-Weg,1,23879,Mölln ,53.61042,10.67607
Gottorfstraße,2,24837,Schleswig ,54.508407,9.541012
Breitestrasse,62,23552,Lübeck,53.866918,10.685546
Alte Dorfstraße,1,23847,Meddewade ,53.815795,10.439203
Hutmacherring,16-22,23556,Lübeck,53.863103,10.600015
Postsrat,2,25938,Nieblum,54.6900935,8.4909201
Hamburger Strasse,29A,23795,Bad Segeberg,53.938518,10.301276
Suchsdorfer Weg,72,24119,Kronshagen,54.340214,10.081684
Holmberg,20,24955,Harrislee,54.805106,9.38845
Alt Frösleer Weg,39,24955,Harrislee,54.80572417,9.39415276
Konrad-Adenauer-Ring,3,23843,Bad Oldesloe,53.813558,10.37099987
Ostseestraße,58,23689,Luschendorf,54.002938,10.723461
Rönnbaum,14,22965,Todendorf,53.69322,10.34996
Kopperpahler Allee,69,24119,Kronshagen,54.338222,10.085823
Nußbaumkoppel,1,24119,Kronshagen,54.337673,10.098989
Suchsdorfer Weg,35,24119,Kronshagen,54.34111,10.07917
Eichkoppelweg,26,24119,Kronshagen,54.33797,10.085001
Suchsdorfer Weg,33,24119,Kronshagen,54.34056,10.08167
Kopperpahler Allee,5,24119,Kronshagen,54.332296,10.085341
Steinwarder Promenade,,23774,Heiligenhafen ,54.381569,10.965532
Marktstraße,1b,22962,Siek,53.633361,10.298299
Süderstraße,89,24955,Harrislee,54.80047,9.39492
Bahnhofstraße,9,24850,Schuby,54.51642,9.48022
Krabbe,17,24306,Plön ,54.16166,10.421181
Am Schiffsthal,11,24306,Plön,54.165059,10.417853
Bahnhofstraße,5,24306,Plön,54.15967,10.42248
Hamburger Strasse,17 - 18,24306,Plön ,54.155633,10.40759861
Schloßberg,3-Apr,24306,Plön ,54.157609,10.415704
Bunsenstraße,2A,24145,Kiel,54.27711,10.15922
Vierschillingsberg,21,24306,Plön,54.161188,10.420876
Steinbrückerstraße,8,23556,Lübeck,53.8577,10.60169
An der BAB,1,22965,Todendorf,53.693019,10.320588
Berliner Strasse,20,23919,Berkenthin,53.73114,10.64012
Seestraße,34,23683,Scharbeutz,54.026044,10.751453
Poggenseer Weg,28,23843,Bad Oldesloe ,53.81641,10.38531
Segeberger Strasse,1,24610,Trappenkamp,54.03769,10.22532
Gablonzer Strasse,42,24610,Trappenkamp,54.036802,10.216599
Am Markt,3,24610,Trappenkamp,54.037164,10.218147
Dorfstraße,40-42,24628,Hartenholm,53.899949,10.05654
Königsberger Strasse,8,24610,Trappenkamp,54.03705,10.21483
Stuthagen,19,24113,Molfsee,54.266693,10.069563
Ton Hus Rönnau,,23795,Klein Rönnau ,53.964105,10.318652
Hamburger Chaussee,2,24113,Molfsee,54.258933,10.061846
Osterberg,1a,24113,Molfsee,54.274985,10.072816
Am Brook,12,24214,Gettorf,54.410389,9.970652
Rathausplatz,1,24558,Henstedt-Ulzburg ,53.792562,9.980484
Dorfstrasse,28,24257,Hohenfelde,54.370169,10.496493
Am Markt,1,24594,Hohenwestedt,54.089075,9.649482
Flenderstraße,87a,23569,Lübeck,53.906507,10.798723
Schmiedestrasse,5-Jul,23556,Lübeck ,53.8646284,10.6842527
Ziegelstrasse,152,23556,Lübeck,53.863555,10.648746
Norderende,2,25821,Breklum,54.60957,8.98857
Theodor-Storm-Strasse,2,25821,Bredstedt,54.616169,8.963291
Pennmoor,1,23560,Lübeck,53.84062,10.622895
Schloss,1,24340,Altenholz ,54.433964,9.871316
Hagenstraße,19,23843,Bad Oldesloe,53.809762,10.371815
Husumer Straße,51,25821,Breklum ,54.607674,8.979855
Am Markt,16,22941,Bargteheide,53.7293,10.262351
Rathausstrasse,24-26,22941,Bargteheide,53.729714,10.267238
Rathausstraße,32,22941,Bargteheide,53.72983,10.268218
Schinderdam,5,24960,Glücksburg,54.83499,9.546807
Steinstrasse,2,23845,Bühnsdorf ,53.887272,10.373008
Hamburger Strasse,24a,24558,Henstedt-Ulzburg,53.791723,9.980477
Am Knüll,3,24217,Stakendorf,54.388211,10.428575
Schulstrasse,,24229,Dänischenhagen ,54.427908,10.125039
Schwanenweg,7,24235,Laboe ,54.39884,10.23212
Parkstraße,Dec-18,24534,Neumünster,54.075099,9.989594
Mielkendorfer Weg,2,24113,Molfsee,54.281652,10.079349
Brookauweg,1,24217,Schönberg,54.40262,10.37197
Ostseestraße,13,24217,Schönberg ,54.394948,10.3728143
Bahnhofstraße,17,25421,Pinneberg,53.657871,9.798542
Rasthof Hüttener Berg West,,24791,Alt Duvenstedt ,54.363947,9.670772
Schwarze Strasse,2:00 AM,24977,Langballig ,54.79889,9.63353
Markt,3,23812,Wahlstedt ,53.95276,10.21254
Strandstrasse,12,24229,Strande ,54.436899,10.172009
Am Flugplatz,4,23560,Lübeck,53.794745,10.70195
An der Treene,5,25876,Schwabstedt,54.39422,9.18501
Holmberg,20,24955,Harrislee,54.80553,9.391932
Alt Frösleer Weg,39,24955,Harrislee,54.806114,9.394478
Hauptstrasse,56,24819,Todenbüttel ,54.129888,9.554898
Auguststraße,48,23611,Bad Schwartau,53.91399,10.693399
Industriestraße,27a,22880,Wedel,53.58042,9.735619
Mühlenwurth,28A,25489,Haseldorf,53.646359,9.572872
Segeberger Strasse,1,22941,Bargteheide,53.735445,10.266801
Koppeldamm,1,25335,Elmshorn,53.76256,9.67173
Am Hafen,40,25832,Tönning ,54.31669,8.94933
Kaltenweide,238,25335,Elmshorn,53.767364,9.687895
Dorfstraße,43,25370,Seester,53.717577,9.59885
Dorfstraße,52a,25371,Seestermühe,53.703261,9.574735
Schulsteig,2,25370,Seester,53.717549,9.598989
Schulstrasse,9,25469,Halstenbek,53.635782,9.841155
Brummerackerweg,6,25499,Tangstedt,53.731594,10.082919
Am Altenfeldsdeich,50,25371,Seester,53.70999,9.55337
Dorfstraße,8,24791,Alt Duvenstedt,54.358701,9.644086
An der Bahn,20,25336,Elmshorn,53.74685,9.660858
Auf dem Gut,3,21493,Basthorst,53.580193,10.470354
An der Wildkoppel Sportplatz,,23845,Sülfeld,53.808123,10.216526
Gutenbergring,47,22848,Norderstedt,53.659349,9.988804
Oldesloer Strasse,9,23845,Sülfeld,53.801245,10.234569
Brauerstraße,7,24568,Kaltenkirchen ,53.835849,9.962937
Möllner Landstraße,22,22113,Oststeinbek,53.541514,10.163601
Willy-Pelz-Straße,1-May,23812,Wahlstedt ,53.944168,10.197724
Klosterbergenstraße,28,21465,Reinbek ,53.514871,10.243559
Meessen,32,22113,Oststeinbek,53.548401,10.166567
Willy-Pelz-Straße,1-May,23812,Wahlstedt ,53.944913,10.198248
Segeberger Straße,1,23827,Wensin / Garbek ,53.998106,10.416992
Papenkamp,8,23879,Mölln,53.605282,10.694399
Hof Louisenlund,,24357,Güby,54.487612,9.677593
Schloß Louisenlund,,24357,Güby,54.49336,9.685102
Winterbeker Weg,49,24114,Kiel,54.309019,10.113476
Herzog-Philipp-Allee,3A,25832,Tönning ,54.320983,8.939481
Eckhorst,80,22941,Bargteheide,53.72348,10.25233
Alt Frösleer Weg,1,24955,Harrislee,54.807618,9.403712
Bäckerstroot,4,24861,Bergenhusen,54.37472222,9.31861111
Jochim-Polleyn-Platz,11,23879,Mölln,53.623219,10.687569
Kerschensteinerstraße,2,23879,Mölln,53.620474,10.685858
Putloser Chaussee,35,23758,Oldenburg in Holstein,54.31026894,10.86068675
Ottendorfer Straße,12,23701,Kesdorf,54.064976,10.656144
Alter Postweg,1,22926,Ahrensburg ,53.68266,10.25242
Hamburger Chaussee,90,24113,Kiel,54.30459,10.11485
Wischhofstraße,1-Mar,24148,Kiel ,54.32757,10.17755
Bargerbrück,4,23617,Stockelsdorf,53.921074,10.640109
Wischhofstraße,1-Mar,24148,Kiel,54.328772,10.176729
Schweriner Strasse,17a,24106,Kiel,54.359355,10.141992
Am Fahrenkrog,1,23730,Sierksdorf,54.074594,10.777225
Ostdeutsche Strasse,3,25840,Friedrichstadt ,54.378228,9.094393
Alte Dorfstrasse,22,25873,Rantrum ,54.43932,9.13044
Dänischburger Landstraße,83,23569,Lübeck,53.914589,10.733124
Aschauer Landstrasse,6,24340,Altenhof,54.454339,9.928956
Karl-Pohns-Strasse,80,25873,Rantrum,54.43751,9.12956
Alte Landstraße,81,22941,22941,53.724905,10.246823
Bürgermeisterweg,3,24628,Hartenholm ,53.902802,10.062966
Osterende,10,24876,Hollingstedt,54.45607,9.33954
Gartenstrasse,32,24534,Neumünster,54.066171,9.981499
Seestern-Pauly-Strasse,10,21493,Schwarzenbek ,53.50237,10.48482
Fabrikstraße,7,23568,Lübeck,53.89319,10.79771
Wiekstraße,5,23570,Lübeck Priwall,53.9518,10.88641
Dorfstrasse,4,25920,Stedesand,54.73943,8.928209
Niederstraße,15,24217,Schönberg ,54.39511,10.36967
Holstenstraße,66-68,24103,Kiel,54.321252,10.134165
Augustental,29,24232,Schönkirchen,54.334673,10.21747
Bürgermeister-Schade-Straße,12,24232,Schönkirchen ,54.33775,10.20973
Am Markt,,24217,Schönberg ,54.396066,10.369762
Bergstraße,2,24103,Kiel,54.32708,10.13522
Hauptstraße,24,24647,Wasbek ,54.07189,9.89833
Westerende,30a,25876,Schwabstedt,54.399432,9.181627
Hauptstraße,12a,24613,Aukrug ,54.08446,9.78847
Hauptstraße,63,24819,Todenbüttel,54.129481,9.554721
Lindenstraße,32,24594,Hohenwestedt,54.09068,9.65294
Holzkoppelweg,8-Dec,24118,Kiel,54.33525,10.11323
Feldstraße,7a,24105,Kiel,54.3297,10.13875
Düsternbrooker Weg,70,24105,Kiel,54.335305,10.152255
Möllner Landstraße,107,22113,Oststeinbek,53.543001,10.177885
Wasserkrüger Weg,16,23879,Mölln,53.62497,10.6874
Markt,16,23774,Heiligenhafen,54.372433,10.978888
Apeldör,2,25779,Hennstedt ,54.27858,9.19524
Büsumer Straße,135-137,24768,Rendsburg ,54.32366,9.61572
Hollesenstraße,4,24768,Rendsburg,54.307897,9.658975
Berliner Straße,4,24768,Rendsburg ,54.29499,9.66271
Kaiserstraße,8,24768,Rendsburg ,54.297772,9.6689567
Königinstraße,1,24768,Rendsburg ,54.299475,9.664078
Hans-Heinrich-Beisenkötter-Platz,1,24768,Rendsburg,54.303691,9.667715
Friedrich-Ebert-Straße,1,24837,Schleswig,54.51913,9.55102
Cesenaticostr.,14,21493,Schwarzenbek ,53.508018,10.492622
Uhlebüller Strasse,6,25899,Niebüll,54.791261,8.82892
Flensburger Str.,61,24837,Schleswig ,54.529511,9.526837
Schule im Augustental,29,24232,Schönkirchen ,54.33377,10.21635
Kehdenstraße,12,24103,Kiel,54.323153,10.137359
,,24232,Schönkirchen ,54.333122,10.21713
Augustenthal,29,24232,Schönkirchen ,54.332796,10.217655
Friedhofsweg,6,24217,Schönberg,54.39823,10.37173
Dorfstraße,47,23719,Glasau,54.052744,10.53032
Stakendorfer Tor,6-Oct,24217,Schönberg ,54.394404,10.375279
Kirchhofsallee,28,24214,Gettorf,54.405728,9.981764
Rehmkamp,10,24161,Altenholz,54.40208,10.13259
Hans-Böckler Straße,1,23560,Lübeck,53.85127,10.68044
Seminarweg,7,23795,Bad Segeberg ,53.935751,10.305623
Altenholzer Straße,Oct-14,24161,Altenholz,54.40306,10.12971
Königsstrasse,32,23843,Bad Oldesloe,53.807842,10.373582
Buschkoppel,7,21493,Schwarzenbek,53.506241,10.485059
 Rathausallee,31,22846,Norderstedt ,53.70663,9.9931
Westerrade,1,24340,Eckernförde,54.4518263,9.8448837
Berliner Straße,12,21493,Schwarzenbek,53.500219,10.478164
Heidbergsttraße,101 - 111,22846,Norderstedt,53.706288,9.994471
Wassermühlenstraße,5,25436,Uetersen ,53.68342,9.66725
Hauptstraße,60,25462,Rellingen,53.65143,9.83016
Gustavstraße,6,25469,Halstenbek,53.63427,9.84072
Chemnitzstraße,30,25355,Barmstedt,53.7885,9.77563
Breite Straße,65,25361,Krempe,53.8361942,9.4865437
Am Markt,1,25355,Barmstedt,53.7888,9.76994
Heederbrook,10,25355,Barmstedt,53.78219,9.77334
Schulweg,3,25364,Brande-Hörnerkirchen,53.85029,9.70789
Am Yachthafen,14,23769,Fehmarn ,54.41207,11.1994
Ede-Menzler-Weg,6,25355,Barmstedt,53.78184,9.768849
Birkenweg,29,25361,Krempe,53.83857,9.49242
Ede-Menzler-Weg,6,25355,Barmstedt,53.781238,9.768507
Oststraße,144,22844,Norderstedt,53.740493,10.022382
Am Wasserwerk,3,23795,Bad Segeberg ,53.939433,10.287796
An der L234,,24640,Schmalfeld ,53.890605,9.984315
Koberg,2,23552,Lübeck,53.871635,10.688408
Tarbeker Landstraße,4,23824,Tensfeld,54.054452,10.300167
Wischhofstraße,1-Mar,24148,Kiel,54.327055,10.182591
Schleswiger Straße,18,24340,Eckernförde,54.477723,9.831121
Am Wasserwerk,4,23795,Bad Segeberg ,53.939047,10.288122
Industriestraße,6,24589,Nortorf ,54.17317,9.85478
Kaiserstraße,23,24768,Rendsburg ,54.29722,9.67248
Wischhofstraße,1-Mar,24148,Kiel,54.328345,10.177481
Lindenstraße,1-Mar,25548,Kellinghusen,53.95349164,9.00839478
Kieler Straße,103-107,25474,Bönningstedt,53.6646861,9.9044256
Düsternbrooker Weg,20,24105,Kiel,54.329917,10.148505
Düsternbrooker Weg,20,24105,Kiel ,54.329976,10.148822
Am Markt,5,25554,Wilster,53.92214,9.37355
Kirchberg,4,23843,Bad Oldesloe ,53.808813,10.375227
Travemünder Allee,3,23568,Lübeck,53.87654,10.69316
Breite Straße,18-28,23552,Lübeck,53.87023,10.68757
Unterberg,1,21481,Lauenburg Elbe ,53.37094,10.577541
Bergstraße,2-Apr,24340,Eckernförde,54.478008,9.843806
Barkholt,64,22927,Großhansdorf,53.652691,10.281428
Mommsenstr.,13,23843,Bad Oldesloe,53.8066972,10.3797894
Ritter-Wulf-Platz,1,21493,Schwarzenbek,53.50275,10.478104
Söllerstraße,16,21481,Lauenburg Elbe ,53.36906,10.57985
Rappenberg,,21502,Wiershop,53.4353,10.443064
Hasentahler Weg,,21502,Wiershop,53.436825,10.444641
Hauptstrasse,34,24852,Eggebek,54.61855,9.370773
Markt,15,21502,Geesthacht ,53.430384,10.375689
Königstraße,19-21,25709,Marne,53.95349164,9.00839478
Holstenstraße,42-48,25560,Schenefeld,54.0461749,9.481183
Roggenstraße,14,25704,Meldorf,54.0888266,9.0733466
Markt,31-33,25746,Heide,54.1938854,9.0916834
Bergedorfer Straße,28,21502,Geesthacht ,53.432906,10.371481
Hafenstrasse,16,21502,Geesthacht ,53.431831,10.374178
Bergedorfer Strasse,58,24502,Geesthacht,53.43647,10.36907
Schillerstraße,9,21502,Geesthacht,53.431616,10.374351
Geesthachter Strasse,82,21502,Geesthacht,53.444452,10.362382
Elbuferstraße,1,21502,Geesthacht,53.428051,10.373117
Gänsemarkt,1,24534,Neumünster,54.073888,9.984047
Hamburger Straße,42,23843,Bad Oldesloe,53.80599,10.36715
Beim Gießhaus,11,25348,Glückstadt,53.777915,9.440292
Am Bürgerpark,4,23843,Bad Oldesloe,53.81104,10.36839
Markt,5,23843,Bad Oldesloe,53.809926,10.373688
Vorderreihe,51,23570,Lübeck,53.958385,10.870944
Olivet-Allee,46,23843,Bad Oldesloe,53.8081,10.36644
Mühlenstraße,22,23843,Bad Oldesloe,53.810418,10.37553
Bahnhofstraße,5,23769,Fehmarn,54.44028,11.19583
Jerusalemsberg,1-Mar,23568,Lübeck,53.878946,10.694376
Holstenstraße,32,24568,Kaltenkirchen,53.8357,9.96413
Hamburger Straße,42,23843,Bad Oldesloe,53.806351,10.365781
Herrenholz,14,23556,Lübeck,53.8583014,10.6293016
Leibnizstraße,13-15,24568,Kaltenkirchen ,53.818496,9.969088
Kurhausstraße,5,23795,Bad Segeberg,53.93702,10.30743
Beckersbergstraße,34,24558,Henstedt-Ulzburg,53.7937138,9.9897277
Falkenburger Straße,94c,23795,Bad Segeberg,53.928641,10.295574
Gartenstraße,4-Aug,25884,Viöl,54.570068,9.1788
Löwenstedter Straße,18,25855,Haselund,54.6035,9.19031
Kirchenweg,1,25884,Viöl,54.569491,9.181063
Stadtweg,27A,24837,Schleswig ,54.51634,9.56394
Wrangelstraße,18,24937,Flensburg,54.787493,9.425471
Schulstraße,11,25813,Schwesing,54.495508,9.139173
Obere Dorfstraße,12,25864,Löwenstedt,54.621555,9.170331
Kapellenweg,3,25864,Löwenstedt ,54.619658,9.176726
Ostenauer Straße,,25864,Löwenstedt,54.621624,9.178864
An der Nordstraße,5,24989,Dollerup,54.78406,9.67263
Große Straße,30,24855,Jübek,54.55754,9.401
Hauptstraße,12,25855,Haselund,54.592643,9.183685
Hauptstraße ,30,25885,Ahrenviölfeld,54.532153,9.279176
Hafflück,,24977,Westerholz,54.807377,9.707896
Strandweg,4,24977,Langballig,54.821527,9.654549
Haffstraße,2,24977,Westerholz ,54.81847,9.672
Gänsemarkt,1,24534,Neumünster,54.0739776,9.983657
Ostseeferienpark,,23774,Heiligenhafen ,54.379077,10.95299
Paul-Ziegler-Straße,1 a/b,24939,Flensburg ,54.803006,9.411875
Husumer Str.,1,25866,Mildstedt ,54.480911,9.099233
Dorfstraße,6,24999,Wees,54.807042,9.520376
Christa-Höppner-Platz,1,21521,Dassendorf,53.489539,10.362339
Bauhof,5-Jun,23879,Mölln,53.62728,10.68794
Alte Salzstraße,7,23911,Pogeez,53.74768,10.72889
Am Markt,4-May,23909,Ratzeburg ,53.6992494,10.7747945
Stadtweg,18,24837,Schleswig,54.51736,9.56516
Lollfuß,89,24837,Schleswig ,54.5124,9.54767
Plessenstraße,13,24837,Schleswig,54.515798,9.566332
Moltkestraße,22-26,24837,Schleswig,54.518525,9.558639
Fjordallee,1,24837,Schleswig,54.515636,9.58783
Adolf-Westphal-Straße,4,24143,Kiel,54.3082,10.13307
Schleswiger Straße,130,24941,Flensburg,54.76157,9.43469
Am Jachthafen,4a,23774,Heiligenhafen,54.37424,10.98385
Süderstraße,33,24214,Gettorf,54.401771,9.974176
Lorentzendamm,28-30,24103,Kiel,54.32598,10.13419
Wasbeker Str.,330,24537,Neumünster,54.071537,9.939776
Turmstraße,8-Dec,23843,Bad Oldesloe ,53.806339,10.385819
Lornsenstraße,52,25335,Elmshorn,53.76007,9.6536
Wittstocker Straße,7,25436,Tornesch,53.693126,9.699333
Dorfstraße,15,25371,Seesternmühe,53.703842,9.568225
Daimlerstraße,8,25337,Elmshorn,53.7462,9.69106
Tornescher Weg,5-Jul,25436,Uetersen,53.68912,9.67715
Pomosin-Werk,5,23775,Grossenbrode,54.36161,11.07078
Bismarckstraße,8,25335,Elmshorn ,53.7569816,9.6525587
Pomosin-Werk,5,23775,Grossenbrode ,54.36161,11.07078
Rathausmarkt,1,24837,Schleswig ,54.514167,9.572063
Flensburger Straße,7,24837,Schleswig,54.5146,9.54593
Beethovenstraße,7,25524,Itzehoe ,53.93278,9.526567
Walter-Saxen-Straße,7,24963,Tarp,54.655696,9.398632
Flensburger Straße,7,24837,Schleswig,54.514125,9.54515
Am Wiesenhof,5,24616,Armstedt,53.970408,9.854118
Rathausallee,31,22846,Norderstedt,53.706803,9.9929
Zum Brook,4,24143,Kiel,54.30641,10.13726
Ulzburger Str.,201,22846,Norderstedt,53.70082,9.99413
Heischkoppel,8,24217,Barsbek,54.39991,10.31522
Yachthafen,,23774,Heiligenhafen ,54.376421,10.979944
Wanderuper Straße,21,24963,Tarp,54.66898,9.39043
Breite Straße,19,25524,Itzehoe,53.9225,9.51838
Eckernförder Straße,353,24107,Kiel,54.351385,10.090258
Schützenwall,19-29,22844,Norderstedt,53.7104,10.02368
Klaf,2,25938,Utersum,54.71394,8.39687
Kappelener Straße,29,24392,Süderbrarup,54.638298,9.785001
Steindamm,2,25485,Hemdingen,53.76277,9.83557
Flughafen,69,25980,Tinnum,54.899167,8.334722
Hansaring,177,24534,Neumünster,54.08155,9.96018
Niedernstraße,6,24589,Nortorf,54.17024,9.85471
Listlandstraße,11,25992,List,55.0151144,8.4275737
Dänischburger Landstraße,81,23569,Lübeck,53.913796,10.7357218
Storchennest,1,24220,Flintbek ,54.2437933,10.0745279
Kurhausstraße,35,25999,Kampen auf Sylt,54.95701,8.33207
Dorfstraße,49b,24257,Schwartbuck,54.35856,10.47714
Reventloustraße,7,24235,Laboe,54.40464,10.22026
de-Voss-Straße,15,25524,Itzehoe,53.90617,9.48872
Ã–lmühlenallee,3,24306,Plön,54.156296,10.448175
Dithmarscher Platz,2,25524,Itzehoe,53.9266934,9.5129661
Viktoriastraße,17a,25524,Itzehoe,53.927172,9.515985
Langenrade,8,24326,Ascheberg,54.151008,10.342102
Heintzestr.,13,24582,Bordesholm,54.177541,10.016596
Jahnstraße,4,25923,Süderlügum,54.87375,8.90327
Kirchenstraße,10,25587,Münsterdorf,53.902531,9.541078
Querstraße,23-25,24376,Kappeln,54.6610823,9.9308306
Mühlenstraße,2,25560,Schenefeld,54.047525,9.480598
Mergenthalerstraße,13-21,24223,Schwentinental ,54.287451,10.218776
Reiherweg,4,24235,Laboe,54.397655,10.23026
Dorfstraße,,24306,Kossau,54.199916,10.449441
Schulstraße,36,24783,Osterrönfeld,54.28802,9.69422
Kieler Strasse,20a,24143,Kiel,54.314146,10.144495
Margarete-Steiff-Weg,3,25524,Itzehoe,53.933333,9.516667
Hauptstraße,16,25923,Süderlügum,54.8709263,8.9069413
Kirchspielweg,6,25746,Heide,54.1951764,9.1019015
Schulstraße,19,21465,Reinbek,53.5147832,10.2489622
Ascheberger Straße,71,24306,Plön,54.14737,10.39556
Mühlendamm,1,24113,Kiel,54.3126897,10.0989207
Markt,28-30,24306,Plön,54.1582838,10.418051
Inspektor-Weimar-Weg,17,24239,Achterwehr,54.31462,9.96734
Am Hafen,,23769,Orth,54.4479434,11.0873918
Dänischburger Landstraße,79,23569,Lübeck,53.9113345,10.7372297
Tollbrettkoppel,15,23774,Heiligenhafen ,54.36677,11.0031
Fährstraße,9-Nov,25557,Oldenbüttel ,54.171369,9.451359
Dänischburger Landstraße,79,23569,Lübeck,53.9113345,10.7372297
Berliner Platz,1,24321,Hohwacht,54.32154,10.66342
Kaltenweide,6,25335,Elmshorn,53.75628,9.66492
Sachsenring,10,24534,Neumünster,54.06386389,9.99273598
Fritz-Lau-Platz,1,25348,Glückstadt,53.79206,9.41817
Schulstraße,7,23683,Scharbeutz,54.020705,10.752126
Kielseng,17,24937,Flensburg,54.80468,9.4443
Schulweg,11,24850,Lürschau ,54.54589,9.49891
Ostseering,5,24321,Hohwacht,54.322394,10.664389
Hoeschstraße,1,23560,Lübeck,53.846609,10.678102
Hinter den Höfen,2,23758,Oldenburg,54.29,10.88318
Rosenstraße,2,23626,Ratekau,53.9488663,10.7342161
Friedrichstraße,43,25980,Westerland,54.90756,8.29808
Brückenstraße,24,24220,Flintbek,54.242509,10.0597254
Strandstraße,119,23669,Niendorf,53.9926997,10.8277595
Listlandstraße,11,25992,List ,55.0151144,8.4275737
Dorfstraße,4,25920,Stedesand,54.7388819,8.9279317
Elmshorner Straße,4,25358,Horst,53.81082,9.6181
Ochsenweg,32,24941,Flensburg,54.75762,9.40031
Mühlenstraße,7,24852,Bordesholm,54.175152,10.043178
Langberger Weg,4,24941,Flensburg,54.773891,9.395285
Osterende,,25576,Brokdorf,53.85904,9.33230639
Mühlenberg,18,24857,Fahrdorf,54.5000661,9.5989141
Wiesengrund,1,25576,Brokdorf,53.862532,9.334294
Bahnhofsstraße,43-47,24582,Bordesholm,54.17384,10.04071
Rathausstraße,2,24960,Glücksburg,54.83473,9.5477
Marrensdamm,2,24944,Flensburg,54.8152953,9.4720588
An der Nordstraße,5,24989,Streichmühle,54.78406,9.67263
Bahnhofstraße,7,24966,Sörup,54.7173956,9.6703989
Hauptstraße,55,25917,Leck,54.7733,8.97084
Großstraße,7-Nov,25813,Husum ,54.47702,9.04931
Rathausmarkt,1,24376,Kappeln,54.66183,9.93198
Inselstraße,32,25946,Wittdün auf Amrum,54.62714,8.39221
Große Straße,23,24392,Süderbrarup ,54.6355359,9.7745745
Mürwiker Straße,91,24943,Flensburg,54.80126,9.45447
Fehmarnstraße,2,24752,Büdelsdorf,54.32461,9.69766
Hollerstraße,126,24782,Büdelsdorf ,54.323193,9.694351
Ual Sarrepwai,2,25946,Norddorf auf Amrum ,54.68021,8.33332
Soltausredder,21,22885,Barsbüttel,53.57247,10.16196
Breite Straße,65,25361,Krempe,53.8361942,9.4865437
Dithmarscher Straße,11,25832,Tönning,54.32137,8.95405
Göhler Straße,90,23758,Oldenburg in Holstein ,54.29182,10.90682
Fahrensodde,16,24944,Flensburg,54.82237,9.46827
Hollerstraße,124,24782,Büdelsdorf,54.32202,9.6931
Koogstraße,70,25541,Brunsbüttel,53.896474,9.139404
Rathausstraße,22,24937,Flensburg ,54.786246,9.432991
